{"type": "FeatureCollection", "features": [ {"type": "Feature", "properties": {"norad_id": 66573, "name": "STARLINK-35650", "group": "last-30-days", "lat": 42.7106785280199, "lon": -133.3323645123927, "alt_km": 403.43673775384286, "timestamp": "2025-12-08T17:43:03.632722+00:00", "meta": {"OBJECT_NAME": "STARLINK-35650", "OBJECT_ID": "2025-268S", "EPOCH": "2025-12-08T06:00:02.999808", "MEAN_MOTION": 15.54788259, "ECCENTRICITY": 0.00012852, "INCLINATION": 43.0006, "RA_OF_ASC_NODE": 147.3942, "ARG_OF_PERICENTER": 264.8386, "MEAN_ANOMALY": 325.4463, "EPHEMERIS_TYPE": 0, "CLASSIFICATION_TYPE": "U", "NORAD_CAT_ID": 66573, "ELEMENT_SET_NO": 999, "REV_AT_EPOCH": 394, "BSTAR": -0.033487359, "MEAN_MOTION_DOT": -0.0204147, "MEAN_MOTION_DDOT": 0}, "tle": {"line1": "1 66573U 25268S   25342.25003472 -.02041470  00000+0 -33487-1 0  9994", "line2": "2 66573  43.0006 147.3942 0001285 264.8386 325.4463 15.54788259  3942"}}, "geometry": {"type": "Point", "coordinates": [-133.3323645123927, 42.7106785280199]}}, {"type": "Feature", "properties": {"norad_id": 66574, "name": "STARLINK-35812", "group": "last-30-days", "lat": 42.85934630999619, "lon": -130.73907107022004, "alt_km": 403.7404342115815, "timestamp": "2025-12-08T17:43:03.632733+00:00", "meta": {"OBJECT_NAME": "STARLINK-35812", "OBJECT_ID": "2025-268T", "EPOCH": "2025-12-08T06:00:02.999808", "MEAN_MOTION": 15.54774995, "ECCENTRICITY": 0.00017145, "INCLINATION": 43.0003, "RA_OF_ASC_NODE": 147.3883, "ARG_OF_PERICENTER": 261.5218, "MEAN_ANOMALY": 330.6921, "EPHEMERIS_TYPE": 0, "CLASSIFICATION_TYPE": "U", "NORAD_CAT_ID": 66574, "ELEMENT_SET_NO": 999, "REV_AT_EPOCH": 394, "BSTAR": -0.033368792, "MEAN_MOTION_DOT": -0.02034391, "MEAN_MOTION_DDOT": 0}, "tle": {"line1": "1 66574U 25268T   25342.25003472 -.02034391  00000+0 -33369-1 0  9998", "line2": "2 66574  43.0003 147.3883 0001714 261.5218 330.6921 15.54774995  3948"}}, "geometry": {"type": "Point", "coordinates": [-130.73907107022004, 42.85934630999619]}}, {"type": "Feature", "properties": {"norad_id": 66575, "name": "STARLINK-35810", "group": "last-30-days", "lat": 42.94966086358273, "lon": -128.1209573298946, "alt_km": 403.4996714795925, "timestamp": "2025-12-08T17:43:03.632743+00:00", "meta": {"OBJECT_NAME": "STARLINK-35810", "OBJECT_ID": "2025-268U", "EPOCH": "2025-12-08T06:00:02.999808", "MEAN_MOTION": 15.54790055, "ECCENTRICITY": 0.00013814, "INCLINATION": 43.0004, "RA_OF_ASC_NODE": 147.3849, "ARG_OF_PERICENTER": 265.9084, "MEAN_ANOMALY": 328.2137, "EPHEMERIS_TYPE": 0, "CLASSIFICATION_TYPE": "U", "NORAD_CAT_ID": 66575, "ELEMENT_SET_NO": 999, "REV_AT_EPOCH": 394, "BSTAR": -0.033651387, "MEAN_MOTION_DOT": -0.02050575, "MEAN_MOTION_DDOT": 0}, "tle": {"line1": "1 66575U 25268U   25342.25003472 -.02050575  00000+0 -33651-1 0  9995", "line2": "2 66575  43.0004 147.3849 0001381 265.9084 328.2137 15.54790055  3948"}}, "geometry": {"type": "Point", "coordinates": [-128.1209573298946, 42.94966086358273]}}, {"type": "Feature", "properties": {"norad_id": 66576, "name": "STARLINK-35814", "group": "last-30-days", "lat": 42.97971923178741, "lon": -125.50496065703463, "alt_km": 403.4550137675924, "timestamp": "2025-12-08T17:43:03.632753+00:00", "meta": {"OBJECT_NAME": "STARLINK-35814", "OBJECT_ID": "2025-268V", "EPOCH": "2025-12-08T06:00:02.999808", "MEAN_MOTION": 15.54793377, "ECCENTRICITY": 0.00013193, "INCLINATION": 43.0002, "RA_OF_ASC_NODE": 147.3802, "ARG_OF_PERICENTER": 261.3624, "MEAN_ANOMALY": 334.6752, "EPHEMERIS_TYPE": 0, "CLASSIFICATION_TYPE": "U", "NORAD_CAT_ID": 66576, "ELEMENT_SET_NO": 999, "REV_AT_EPOCH": 394, "BSTAR": -0.033711222, "MEAN_MOTION_DOT": -0.02054015, "MEAN_MOTION_DDOT": 0}, "tle": {"line1": "1 66576U 25268V   25342.25003472 -.02054015  00000+0 -33711-1 0  9996", "line2": "2 66576  43.0002 147.3802 0001319 261.3624 334.6752 15.54793377  3941"}}, "geometry": {"type": "Point", "coordinates": [-125.50496065703463, 42.97971923178741]}}, {"type": "Feature", "properties": {"norad_id": 66577, "name": "STARLINK-35815", "group": "last-30-days", "lat": 42.94993759455613, "lon": -122.88763494413585, "alt_km": 403.5247482549403, "timestamp": "2025-12-08T17:43:03.632763+00:00", "meta": {"OBJECT_NAME": "STARLINK-35815", "OBJECT_ID": "2025-268W", "EPOCH": "2025-12-08T06:00:02.999808", "MEAN_MOTION": 15.54789316, "ECCENTRICITY": 0.00014273, "INCLINATION": 43, "RA_OF_ASC_NODE": 147.3753, "ARG_OF_PERICENTER": 262.683, "MEAN_ANOMALY": 335.2721, "EPHEMERIS_TYPE": 0, "CLASSIFICATION_TYPE": "U", "NORAD_CAT_ID": 66577, "ELEMENT_SET_NO": 999, "REV_AT_EPOCH": 394, "BSTAR": -0.033601815, "MEAN_MOTION_DOT": -0.02047858, "MEAN_MOTION_DDOT": 0}, "tle": {"line1": "1 66577U 25268W   25342.25003472 -.02047858  00000+0 -33602-1 0  9993", "line2": "2 66577  43.0000 147.3753 0001427 262.6830 335.2721 15.54789316  3949"}}, "geometry": {"type": "Point", "coordinates": [-122.88763494413585, 42.94993759455613]}}, {"type": "Feature", "properties": {"norad_id": 66578, "name": "STARLINK-35743", "group": "last-30-days", "lat": 42.860575630777156, "lon": -120.27499918911609, "alt_km": 403.49491393965945, "timestamp": "2025-12-08T17:43:03.632788+00:00", "meta": {"OBJECT_NAME": "STARLINK-35743", "OBJECT_ID": "2025-268X", "EPOCH": "2025-12-08T06:00:02.999808", "MEAN_MOTION": 15.54795655, "ECCENTRICITY": 0.00013421, "INCLINATION": 43, "RA_OF_ASC_NODE": 147.3702, "ARG_OF_PERICENTER": 263.5532, "MEAN_ANOMALY": 336.3184, "EPHEMERIS_TYPE": 0, "CLASSIFICATION_TYPE": "U", "NORAD_CAT_ID": 66578, "ELEMENT_SET_NO": 999, "REV_AT_EPOCH": 394, "BSTAR": -0.033788409, "MEAN_MOTION_DOT": -0.02058379, "MEAN_MOTION_DDOT": 0}, "tle": {"line1": "1 66578U 25268X   25342.25003472 -.02058379  00000+0 -33788-1 0  9999", "line2": "2 66578  43.0000 147.3702 0001342 263.5532 336.3184 15.54795655  3947"}}, "geometry": {"type": "Point", "coordinates": [-120.27499918911609, 42.860575630777156]}}, {"type": "Feature", "properties": {"norad_id": 66579, "name": "STARLINK-35868", "group": "last-30-days", "lat": 42.71207299650075, "lon": -117.67351550816007, "alt_km": 403.5191419133689, "timestamp": "2025-12-08T17:43:03.632799+00:00", "meta": {"OBJECT_NAME": "STARLINK-35868", "OBJECT_ID": "2025-268Y", "EPOCH": "2025-12-08T06:00:02.999808", "MEAN_MOTION": 15.54790251, "ECCENTRICITY": 0.00013778, "INCLINATION": 43.0002, "RA_OF_ASC_NODE": 147.3652, "ARG_OF_PERICENTER": 262.1333, "MEAN_ANOMALY": 339.6565, "EPHEMERIS_TYPE": 0, "CLASSIFICATION_TYPE": "U", "NORAD_CAT_ID": 66579, "ELEMENT_SET_NO": 999, "REV_AT_EPOCH": 394, "BSTAR": -0.033638854, "MEAN_MOTION_DOT": -0.02049905, "MEAN_MOTION_DDOT": 0}, "tle": {"line1": "1 66579U 25268Y   25342.25003472 -.02049905  00000+0 -33639-1 0  9990", "line2": "2 66579  43.0002 147.3652 0001377 262.1333 339.6565 15.54790251  3942"}}, "geometry": {"type": "Point", "coordinates": [-117.67351550816007, 42.71207299650075]}}, {"type": "Feature", "properties": {"norad_id": 66580, "name": "STARLINK-35872", "group": "last-30-days", "lat": 42.50497975734229, "lon": -115.08827899991937, "alt_km": 403.55524937252085, "timestamp": "2025-12-08T17:43:03.632809+00:00", "meta": {"OBJECT_NAME": "STARLINK-35872", "OBJECT_ID": "2025-268Z", "EPOCH": "2025-12-08T06:00:02.999808", "MEAN_MOTION": 15.547942, "ECCENTRICITY": 0.00014064, "INCLINATION": 43.0004, "RA_OF_ASC_NODE": 147.3609, "ARG_OF_PERICENTER": 258.9395, "MEAN_ANOMALY": 344.7661, "EPHEMERIS_TYPE": 0, "CLASSIFICATION_TYPE": "U", "NORAD_CAT_ID": 66580, "ELEMENT_SET_NO": 999, "REV_AT_EPOCH": 394, "BSTAR": -0.033745179, "MEAN_MOTION_DOT": -0.02055971, "MEAN_MOTION_DDOT": 0}, "tle": {"line1": "1 66580U 25268Z   25342.25003472 -.02055971  00000+0 -33745-1 0  9990", "line2": "2 66580  43.0004 147.3609 0001406 258.9395 344.7661 15.54794200  3944"}}, "geometry": {"type": "Point", "coordinates": [-115.08827899991937, 42.50497975734229]}}, {"type": "Feature", "properties": {"norad_id": 66581, "name": "STARLINK-35744", "group": "last-30-days", "lat": 42.23948435518039, "lon": -112.52148038164225, "alt_km": 403.6344426995738, "timestamp": "2025-12-08T17:43:03.632823+00:00", "meta": {"OBJECT_NAME": "STARLINK-35744", "OBJECT_ID": "2025-268AA", "EPOCH": "2025-12-08T06:00:02.999808", "MEAN_MOTION": 15.54790484, "ECCENTRICITY": 0.00014573, "INCLINATION": 43.0004, "RA_OF_ASC_NODE": 147.3548, "ARG_OF_PERICENTER": 262.0404, "MEAN_ANOMALY": 343.5834, "EPHEMERIS_TYPE": 0, "CLASSIFICATION_TYPE": "U", "NORAD_CAT_ID": 66581, "ELEMENT_SET_NO": 999, "REV_AT_EPOCH": 389, "BSTAR": -0.033669847, "MEAN_MOTION_DOT": -0.02051656, "MEAN_MOTION_DDOT": 0}, "tle": {"line1": "1 66581U 25268AA  25342.25003472 -.02051656  00000+0 -33670-1 0  9994", "line2": "2 66581  43.0004 147.3548 0001457 262.0404 343.5834 15.54790484  3893"}}, "geometry": {"type": "Point", "coordinates": [-112.52148038164225, 42.23948435518039]}}, {"type": "Feature", "properties": {"norad_id": 66582, "name": "STARLINK-35746", "group": "last-30-days", "lat": 41.91670683914333, "lon": -109.97354022514763, "alt_km": 403.6140991166076, "timestamp": "2025-12-08T17:43:03.632833+00:00", "meta": {"OBJECT_NAME": "STARLINK-35746", "OBJECT_ID": "2025-268AB", "EPOCH": "2025-12-08T06:00:02.999808", "MEAN_MOTION": 15.54786186, "ECCENTRICITY": 0.00014288, "INCLINATION": 43.0006, "RA_OF_ASC_NODE": 147.3501, "ARG_OF_PERICENTER": 259.6296, "MEAN_ANOMALY": 347.9126, "EPHEMERIS_TYPE": 0, "CLASSIFICATION_TYPE": "U", "NORAD_CAT_ID": 66582, "ELEMENT_SET_NO": 999, "REV_AT_EPOCH": 394, "BSTAR": -0.033494295, "MEAN_MOTION_DOT": -0.02041797, "MEAN_MOTION_DDOT": 0}, "tle": {"line1": "1 66582U 25268AB  25342.25003472 -.02041797  00000+0 -33494-1 0  9994", "line2": "2 66582  43.0006 147.3501 0001428 259.6296 347.9126 15.54786186  3946"}}, "geometry": {"type": "Point", "coordinates": [-109.97354022514763, 41.91670683914333]}}]}